[{"OBJECT_NAME":"VIZARD-METEO (RS38S)","OBJECT_ID":"2023-091Z","EPOCH":"2026-03-09T23:01:09.168960","MEAN_MOTION":15.32764799,"ECCENTRICITY":0.00087615,"INCLINATION":97.5192,"RA_OF_ASC_NODE":136.6522,"ARG_OF_PERICENTER":71.7666,"MEAN_ANOMALY":288.4529,"EPHEMERIS_TYPE":0,"CLASSIFICATION_TYPE":"U","NORAD_CAT_ID":57189,"ELEMENT_SET_NO":999,"REV_AT_EPOCH":14947,"BSTAR":0.00066106249,"MEAN_MOTION_DOT":0.00020895,"MEAN_MOTION_DDOT":0},{"OBJECT_NAME":"STARLINK-31829","OBJECT_ID":"2024-091T","EPOCH":"2026-03-09T07:06:29.071584","MEAN_MOTION":15.30159829,"ECCENTRICITY":0.00014123,"INCLINATION":53.1626,"RA_OF_ASC_NODE":28.7501,"ARG_OF_PERICENTER":111.3087,"MEAN_ANOMALY":248.8065,"EPHEMERIS_TYPE":0,"CLASSIFICATION_TYPE":"U","NORAD_CAT_ID":59770,"ELEMENT_SET_NO":999,"REV_AT_EPOCH":10294,"BSTAR":-0.0001478243,"MEAN_MOTION_DOT":-4.729e-5,"MEAN_MOTION_DDOT":0}]
